     2.10           NAVIGATION                              RINEX VERSION / TYPE
fic2rin                                 07/10/2006 09:16:03 PGM / RUN BY / DATE
                                                            END OF HEADER
 1 06  1 31 10  0  0.0  .341818667948D-04  .181898940355D-11  .000000000000D+00
     .910000000000D+02  .106437500000D+03  .425303429881D-08 -.816009861720D+00
     .566430389881D-05  .632467505056D-02  .520423054695D-05  .515367639923D+04
     .208800000000D+06 -.135973095894D-06 -.171550476728D+01  .335276126862D-07
     .986368607492D+00  .295875000000D+03 -.171064293460D+01 -.823784313923D-08
     .506806824824D-09  .100000000000D+01  .136000000000D+04  .000000000000D+00
     .240000000000D+01  .000000000000D+00 -.325962901115D-08  .347000000000D+03
     .201606000000D+06  .400000000000D+01
15 06  1 31 10  0  0.0  .558434985578D-03  .591171556152D-11  .000000000000D+00
     .198000000000D+03 -.403125000000D+02  .491627621121D-08 -.217313467942D+01
    -.199861824512D-05  .935517495964D-02  .675022602081D-05  .515370630646D+04
     .208800000000D+06 -.150874257088D-06  .251215686981D+01  .894069671631D-07
     .958190482171D+00  .249781250000D+03  .254592935625D+01 -.824570060939D-08
    -.529307762079D-09  .100000000000D+01  .136000000000D+04  .000000000000D+00
     .240000000000D+01  .000000000000D+00 -.232830643654D-08  .454000000000D+03
     .201606000000D+06  .400000000000D+01
32 06  1 31 10  0  0.0  .212597660720D-04  .341060513165D-11  .000000000000D+00
     .184000000000D+03 -.100281250000D+03  .461126350621D-08  .196454132616D+01
    -.529922544956D-05  .871198589448D-02  .137276947498D-04  .515360478783D+04
     .208800000000D+06  .558793544769D-08  .307334398786D+00 -.212341547012D-06
     .944622565059D+00  .102875000000D+03  .129505117306D+01 -.796354599937D-08
    -.464305054455D-11  .100000000000D+01  .136000000000D+04  .000000000000D+00
     .240000000000D+01  .000000000000D+00 -.838190317154D-08  .440000000000D+03
     .201606000000D+06  .400000000000D+01
 1 06  1 31  9 59 44.0  .341916456819D-04  .193267624127D-11  .000000000000D+00
     .115000000000D+03  .106437500000D+03  .425303429881D-08 -.818341978428D+00
     .566430389881D-05  .632467807736D-02  .520423054695D-05  .515367637444D+04
     .208784000000D+06 -.135973095894D-06 -.171550464586D+01  .335276126862D-07
     .986368594325D+00  .295875000000D+03 -.171064445164D+01 -.823784313923D-08
     .506806824824D-09  .100000000000D+01  .136000000000D+04  .000000000000D+00
     .240000000000D+01  .000000000000D+00 -.325962901115D-08  .115000000000D+03
     .208446000000D+06  .400000000000D+01
 1 06  1 31 11 59 44.0  .342056155205D-04  .193267624127D-11  .000000000000D+00
     .116000000000D+03  .113406250000D+03  .415874465698D-08  .231892822330D+00
     .578165054321D-05  .632588984445D-02  .529363751411D-05  .515367877960D+04
     .215984000000D+06 -.745058059692D-07 -.171556435925D+01 -.279396772385D-07
     .986372320378D+00  .290062500000D+03 -.171070282354D+01 -.827605901679D-08
     .533236497155D-09  .100000000000D+01  .136000000000D+04  .000000000000D+00
     .240000000000D+01  .000000000000D+00 -.325962901115D-08  .372000000000D+03
     .208806000000D+06  .400000000000D+01
15 06  1 31 12  0  0.0  .558477826416D-03  .591171556152D-11  .000000000000D+00
     .199000000000D+03 -.394062500000D+02  .489556106263D-08 -.112295671303D+01
    -.219792127609D-05  .935519312043D-02  .676140189171D-05  .515370655060D+04
     .216000000000D+06 -.134110450745D-06  .251209679215D+01 -.465661287308D-07
     .958186633234D+00  .249156250000D+03  .254591534295D+01 -.832106089130D-08
    -.494663461862D-09  .100000000000D+01  .136000000000D+04  .000000000000D+00
     .240000000000D+01  .000000000000D+00 -.232830643654D-08  .455000000000D+03
     .208806000000D+06  .400000000000D+01
32 06  1 31 12  0  0.0  .212844461203D-04  .341060513165D-11  .000000000000D+00
     .185000000000D+03 -.842187500000D+02  .455768984608D-08  .301468049889D+01
    -.437162816525D-05  .871008832473D-02  .138413161039D-04  .515360840988D+04
     .216000000000D+06  .115483999252D-06  .307277460551D+00 -.130385160446D-06
     .944622686481D+00  .985625000000D+02  .129513504508D+01 -.791318675885D-08
     .357157734196D-11  .100000000000D+01  .136000000000D+04  .000000000000D+00
     .340000000000D+01  .000000000000D+00 -.838190317154D-08  .441000000000D+03
     .208806000000D+06  .400000000000D+01
 1 06  1 31 14  0  0.0  .342191196978D-04  .193267624127D-11  .000000000000D+00
     .117000000000D+03  .120250000000D+03  .414195824347D-08  .128450940586D+01
     .622309744358D-05  .632508727722D-02  .504590570927D-05  .515367679787D+04
     .223200000000D+06 -.763684511185D-07 -.171562415603D+01 -.111758708954D-06
     .986376251239D+00  .293375000000D+03 -.171080977163D+01 -.823998608564D-08
     .543236913712D-09  .100000000000D+01  .136000000000D+04  .000000000000D+00
     .240000000000D+01  .000000000000D+00 -.325962901115D-08  .373000000000D+03
     .216006000000D+06  .400000000000D+01
15 06  1 31 14  0  0.0  .558520667255D-03  .591171556152D-11  .000000000000D+00
     .200000000000D+03 -.421875000000D+02  .494806324955D-08 -.727814120722D-01
    -.241957604885D-05  .935553596355D-02  .681355595589D-05  .515370721245D+04
     .223200000000D+06  .651925802231D-07  .251203754543D+01 -.137835741043D-06
     .958182251794D+00  .248468750000D+03  .254590310711D+01 -.840392148563D-08
    -.662527596934D-09  .100000000000D+01  .136000000000D+04  .000000000000D+00
     .340000000000D+01  .000000000000D+00 -.232830643654D-08  .456000000000D+03
     .216006000000D+06  .400000000000D+01
32 06  1 31 14  0  0.0  .213091261685D-04  .341060513165D-11  .000000000000D+00
     .180000000000D+03 -.714375000000D+02  .470841040991D-08 -.221848770144D+01
    -.376813113689D-05  .871319556609D-02  .128187239170D-04  .515360179138D+04
     .223200000000D+06  .128522515297D-06  .307219891799D+00  .167638063431D-07
     .944623208743D+00  .122156250000D+03  .129534134872D+01 -.791461538979D-08
     .113219001740D-09  .100000000000D+01  .136000000000D+04  .000000000000D+00
     .340000000000D+01  .000000000000D+00 -.838190317154D-08  .692000000000D+03
     .216006000000D+06  .400000000000D+01
32 06  1 31 13 59 44.0  .213137827814D-04  .341060513165D-11  .000000000000D+00
     .206000000000D+03 -.714375000000D+02  .470841040991D-08 -.222082139957D+01
    -.376813113689D-05  .871319742873D-02  .128187239170D-04  .515360178947D+04
     .223184000000D+06  .128522515297D-06  .307220032239D+00  .167638063431D-07
     .944623207280D+00  .122156250000D+03  .129534120242D+01 -.791461538979D-08
     .113219001740D-09  .100000000000D+01  .136000000000D+04  .000000000000D+00
     .240000000000D+01  .000000000000D+00 -.838190317154D-08  .206000000000D+03
     .219786000000D+06  .400000000000D+01
32 06  1 31 15 59 44.0  .213384628296D-04  .341060513165D-11  .000000000000D+00
     .207000000000D+03 -.765312500000D+02  .471126767178D-08 -.117036120409D+01
    -.385381281376D-05  .871346553322D-02  .122822821140D-04  .515360552979D+04
     .230384000000D+06 -.186264514923D-07  .307162874567D+00  .223517417908D-06
     .944622831310D+00  .137875000000D+03  .129510646405D+01 -.814748223248D-08
     .507163982558D-10  .100000000000D+01  .136000000000D+04  .000000000000D+00
     .240000000000D+01  .000000000000D+00 -.838190317154D-08  .207000000000D+03
     .223206000000D+06  .400000000000D+01
 1 06  1 31 16  0  0.0  .342330895364D-04  .193267624127D-11  .000000000000D+00
     .118000000000D+03  .119093750000D+03  .395159317115D-08  .233457122826D+01
     .614114105701D-05  .632507458795D-02  .485964119434D-05  .515367810249D+04
     .230400000000D+06  .173225998878D-06 -.171568232750D+01  .000000000000D+00
     .986381295380D+00  .298875000000D+03 -.171069670561D+01 -.797497504686D-08
     .513592821774D-09  .100000000000D+01  .136000000000D+04  .000000000000D+00
     .240000000000D+01  .000000000000D+00 -.325962901115D-08  .374000000000D+03
     .223206000000D+06  .400000000000D+01
15 06  1 31 16  0  0.0  .558563508093D-03  .591171556152D-11  .000000000000D+00
     .201000000000D+03 -.454375000000D+02  .496199240119D-08  .977276156160D+00
    -.264123082161D-05  .935740733985D-02  .570528209209D-05  .515371125984D+04
     .230400000000D+06  .119209289551D-06  .251197710643D+01 -.540167093277D-07
     .958177516328D+00  .262937500000D+03  .254600790909D+01 -.837927760197D-08
    -.683242745517D-09  .100000000000D+01  .136000000000D+04  .000000000000D+00
     .340000000000D+01  .000000000000D+00 -.232830643654D-08  .201000000000D+03
     .223206000000D+06  .400000000000D+01
 1 06  1 31 18  0  0.0  .342465937138D-04  .193267624127D-11  .000000000000D+00
     .119000000000D+03  .114312500000D+03  .394552148966D-08 -.289838036803D+01
     .597164034843D-05  .632530450821D-02  .505894422531D-05  .515367750549D+04
     .237600000000D+06 -.111758708954D-07 -.171573859426D+01 -.372529029846D-08
     .986384717146D+00  .297218750000D+03 -.171075624345D+01 -.788925719066D-08
     .383230248792D-09  .100000000000D+01  .136000000000D+04  .000000000000D+00
     .240000000000D+01  .000000000000D+00 -.325962901115D-08  .375000000000D+03
     .230406000000D+06  .400000000000D+01
15 06  1 31 18  0  0.0  .558606348932D-03  .591171556152D-11  .000000000000D+00
     .196000000000D+03 -.435625000000D+02  .509914097112D-08  .202742773297D+01
    -.202842056751D-05  .935770059004D-02  .563822686672D-05  .515371146965D+04
     .237600000000D+06  .199303030968D-06  .251191656064D+01  .242143869400D-07
     .958172631645D+00  .267000000000D+03  .254601763457D+01 -.839249243814D-08
    -.630740558590D-09  .100000000000D+01  .136000000000D+04  .000000000000D+00
     .340000000000D+01  .000000000000D+00 -.232830643654D-08  .964000000000D+03
     .230406000000D+06  .400000000000D+01
